CTC2_L_00285016-03
1 34356U 22877QF  26037.47793981  .00000000  00000+0  00000-0 0  9992
2 34356 100.0000 180.0000 0000000   0.0000   0.0000 13.89609337    13
CTC2_L_00285016-04
1 34357U 23626UH  26037.47793981  .00000000  00000+0  00000-0 0  9996
2 34357 100.0000 180.0000 0000000   0.0000  90.0000 13.89609337    13
CTC2_L_00285017-01
1 34358U 23988Q   26037.47793981  .00000000  00000+0  00000-0 0  9998
2 34358 100.0000 192.0000 0000000   0.0000 192.0000 13.89609337    10
CTC2_L_00285017-02
1 34359U 26047FD  26037.47793981  .00000000  00000+0  00000-0 0  9998
2 34359 100.0000 192.0000 0000000   0.0000 282.0000 13.89609337    11
CTC2_L_00285017-03
1 34360U 23241TZ  26037.47793981  .00000000  00000+0  00000-0 0  9993
2 34360 100.0000 192.0000 0000000   0.0000  12.0000 13.89609337    14
CTC2_L_00285017-04
1 34361U 23944ZC  26037.47793981  .00000000  00000+0  00000-0 0  9994
2 34361 100.0000 192.0000 0000000   0.0000 102.0000 13.89609337    15
CTC2_L_00285018-01
1 34362U 22853GD  26037.47793981  .00000000  00000+0  00000-0 0  9993
2 34362 100.0000 204.0000 0000000   0.0000 204.0000 13.89609337    13
CTC2_L_00285018-02
1 34363U 26251RW  26037.47793981  .00000000  00000+0  00000-0 0  9990
2 34363 100.0000 204.0000 0000000   0.0000 294.0000 13.89609337    13
CTC2_L_00285018-03
1 34364U 26316GF  26037.47793981  .00000000  00000+0  00000-0 0  9993
2 34364 100.0000 204.0000 0000000   0.0000  24.0000 13.89609337    15
CTC2_L_00285018-04
1 34365U 22129PE  26037.47793981  .00000000  00000+0  00000-0 0  9992
2 34365 100.0000 204.0000 0000000   0.0000 114.0000 13.89609337    16
CTC2_L_00285019-01
1 34366U 24565PH  26037.47793981  .00000000  00000+0  00000-0 0  9999
2 34366 100.0000 216.0000 0000000   0.0000 216.0000 13.89609337    13
CTC2_L_00285019-02
1 34367U 25835WB  26037.47793981  .00000000  00000+0  00000-0 0  9991
2 34367 100.0000 216.0000 0000000   0.0000 306.0000 13.89609337    14
CTC2_L_00285019-03
1 34368U 26200SG  26037.47793981  .00000000  00000+0  00000-0 0  9999
2 34368 100.0000 216.0000 0000000   0.0000  36.0000 13.89609337    15
CTC2_L_00285019-04
1 34369U 22155RW  26037.47793981  .00000000  00000+0  00000-0 0  9995
2 34369 100.0000 216.0000 0000000   0.0000 126.0000 13.89609337    16
CTC2_L_00285020-01
1 34370U 23067FL  26037.47793981  .00000000  00000+0  00000-0 0  9990
2 34370 100.0000 228.0000 0000000   0.0000 228.0000 13.89609337    14
CTC2_L_00285020-02
1 34371U 26782ZU  26037.47793981  .00000000  00000+0  00000-0 0  9998
2 34371 100.0000 228.0000 0000000   0.0000 318.0000 13.89609337    15
CTC2_L_00285020-03
1 34372U 26348IK  26037.47793981  .00000000  00000+0  00000-0 0  9997
2 34372 100.0000 228.0000 0000000   0.0000  48.0000 13.89609337    16
CTC2_L_00285020-04
1 34373U 25797LR  26037.47793981  .00000000  00000+0  00000-0 0  9995
2 34373 100.0000 228.0000 0000000   0.0000 138.0000 13.89609337    17
CTC2_L_00285021-01
1 34374U 26110TK  26037.47793981  .00000000  00000+0  00000-0 0  9996
2 34374 100.0000 240.0000 0000000   0.0000 240.0000 13.89609337    16
CTC2_L_00285021-02
1 34375U 24306VP  26037.47793981  .00000000  00000+0  00000-0 0  9992
2 34375 100.0000 240.0000 0000000   0.0000 330.0000 13.89609337    17
CTC2_L_00285021-03
1 34376U 23464KS  26037.47793981  .00000000  00000+0  00000-0 0  9997
2 34376 100.0000 240.0000 0000000   0.0000  60.0000 13.89609337    18
CTC2_L_00285021-04
1 34377U 25587RW  26037.47793981  .00000000  00000+0  00000-0 0  9996
2 34377 100.0000 240.0000 0000000   0.0000 150.0000 13.89609337    19
CTC2_L_00285022-01
1 34378U 24061JD  26037.47793981  .00000000  00000+0  00000-0 0  9993
2 34378 100.0000 252.0000 0000000   0.0000 252.0000 13.89609337    16
CTC2_L_00285022-02
1 34379U 24197KQ  26037.47793981  .00000000  00000+0  00000-0 0  9994
2 34379 100.0000 252.0000 0000000   0.0000 342.0000 13.89609337    17
CTC2_L_00285022-03
1 34380U 22371SA  26037.47793981  .00000000  00000+0  00000-0 0  9998
2 34380 100.0000 252.0000 0000000   0.0000  72.0000 13.89609337    19
CTC2_L_00285022-04
1 34381U 26473TV  26037.47793981  .00000000  00000+0  00000-0 0  9996
2 34381 100.0000 252.0000 0000000   0.0000 162.0000 13.89609337    10
CTC2_L_00285023-01
1 34382U 22856GM  26037.47793981  .00000000  00000+0  00000-0 0  9998
2 34382 100.0000 264.0000 0000000   0.0000 264.0000 13.89609337    17
CTC2_L_00285023-02
1 34383U 23929CO  26037.47793981  .00000000  00000+0  00000-0 0  9991
2 34383 100.0000 264.0000 0000000   0.0000 354.0000 13.89609337    18
CTC2_L_00285023-03
1 34384U 25143SU  26037.47793981  .00000000  00000+0  00000-0 0  9992
2 34384 100.0000 264.0000 0000000   0.0000  84.0000 13.89609337    19
CTC2_L_00285023-04
1 34385U 22188DT  26037.47793981  .00000000  00000+0  00000-0 0  9999
2 34385 100.0000 264.0000 0000000   0.0000 174.0000 13.89609337    10
CTC2_L_00285024-01
1 34386U 25684FA  26037.47793981  .00000000  00000+0  00000-0 0  9994
2 34386 100.0000 276.0000 0000000   0.0000 276.0000 13.89609337    17
CTC2_L_00285024-02
1 34387U 25597RT  26037.47793981  .00000000  00000+0  00000-0 0  9998
2 34387 100.0000 276.0000 0000000   0.0000   6.0000 13.89609337    19
CTC2_L_00285024-03
1 34388U 22299OJ  26037.47793981  .00000000  00000+0  00000-0 0  9995
2 34388 100.0000 276.0000 0000000   0.0000  96.0000 13.89609337    19
CTC2_L_00285024-04
1 34389U 26733QN  26037.47793981  .00000000  00000+0  00000-0 0  9993
2 34389 100.0000 276.0000 0000000   0.0000 186.0000 13.89609337    10
CTC2_L_00285025-01
1 34390U 22900KF  26037.47793981  .00000000  00000+0  00000-0 0  9997
2 34390 100.0000 288.0000 0000000   0.0000 288.0000 13.89609337    18
CTC2_L_00285025-02
1 34391U 22975DI  26037.47793981  .00000000  00000+0  00000-0 0  9990
2 34391 100.0000 288.0000 0000000   0.0000  18.0000 13.89609337    10
CTC2_L_00285025-03
1 34392U 24425CY  26037.47793981  .00000000  00000+0  00000-0 0  9993
2 34392 100.0000 288.0000 0000000   0.0000 108.0000 13.89609337    11
CTC2_L_00285025-04
1 34393U 22461XQ  26037.47793981  .00000000  00000+0  00000-0 0  9992
2 34393 100.0000 288.0000 0000000   0.0000 198.0000 13.89609337    11
CTC2_L_00285026-01
1 34394U 25145EQ  26037.47793981  .00000000  00000+0  00000-0 0  9995
2 34394 100.0000 300.0000 0000000   0.0000 300.0000 13.89609337    12
CTC2_L_00285026-02
1 34395U 25532RC  26037.47793981  .00000000  00000+0  00000-0 0  9996
2 34395 100.0000 300.0000 0000000   0.0000  30.0000 13.89609337    13
CTC2_L_00285026-03
1 34396U 25604US  26037.47793981  .00000000  00000+0  00000-0 0  9997
2 34396 100.0000 300.0000 0000000   0.0000 120.0000 13.89609337    14
CTC2_L_00285026-04
1 34397U 25938QG  26037.47793981  .00000000  00000+0  00000-0 0  9998
2 34397 100.0000 300.0000 0000000   0.0000 210.0000 13.89609337    15
CTC2_L_00285027-01
1 34398U 23002PR  26037.47793981  .00000000  00000+0  00000-0 0  9999
2 34398 100.0000 312.0000 0000000   0.0000 312.0000 13.89609337    12
CTC2_L_00285027-02
1 34399U 23720TI  26037.47793981  .00000000  00000+0  00000-0 0  9997
2 34399 100.0000 312.0000 0000000   0.0000  42.0000 13.89609337    13
CTC2_L_00285027-03
1 34400U 24051TG  26037.47793981  .00000000  00000+0  00000-0 0  9998
2 34400 100.0000 312.0000 0000000   0.0000 132.0000 13.89609337    16
CTC2_L_00285027-04
1 34401U 24806DB  26037.47793981  .00000000  00000+0  00000-0 0  9997
2 34401 100.0000 312.0000 0000000   0.0000 222.0000 13.89609337    17
CTC2_L_00285028-01
1 34402U 24725ED  26037.47793981  .00000000  00000+0  00000-0 0  9998
2 34402 100.0000 324.0000 0000000   0.0000 324.0000 13.89609337    14
CTC2_L_00285028-02
1 34403U 24969KR  26037.47793981  .00000000  00000+0  00000-0 0  9999
2 34403 100.0000 324.0000 0000000   0.0000  54.0000 13.89609337    15
CTC2_L_00285028-03
1 34404U 25745UW  26037.47793981  .00000000  00000+0  00000-0 0  9993
2 34404 100.0000 324.0000 0000000   0.0000 144.0000 13.89609337    16
CTC2_L_00285028-04
1 34405U 26327YA  26037.47793981  .00000000  00000+0  00000-0 0  9991
2 34405 100.0000 324.0000 0000000   0.0000 234.0000 13.89609337    17
CTC2_L_00285029-01
1 34406U 22728LM  26037.47793981  .00000000  00000+0  00000-0 0  9993
2 34406 100.0000 336.0000 0000000   0.0000 336.0000 13.89609337    14
CTC2_L_00285029-02
1 34407U 22556DP  26037.47793981  .00000000  00000+0  00000-0 0  9993
2 34407 100.0000 336.0000 0000000   0.0000  66.0000 13.89609337    15
CTC2_L_00285029-03
1 34408U 22410AN  26037.47793981  .00000000  00000+0  00000-0 0  9993
2 34408 100.0000 336.0000 0000000   0.0000 156.0000 13.89609337    16
CTC2_L_00285029-04
1 34409U 24602GT  26037.47793981  .00000000  00000+0  00000-0 0  9999
2 34409 100.0000 336.0000 0000000   0.0000 246.0000 13.89609337    17
CTC2_L_00285030-01
1 34410U 22757JD  26037.47793981  .00000000  00000+0  00000-0 0  9990
2 34410 100.0000 348.0000 0000000   0.0000 348.0000 13.89609337    15
CTC2_L_00285030-02
1 34411U 23644PL  26037.47793981  .00000000  00000+0  00000-0 0  9997
2 34411 100.0000 348.0000 0000000   0.0000  78.0000 13.89609337    16
CTC2_L_00285030-03
1 34412U 25221BJ  26037.47793981  .00000000  00000+0  00000-0 0  9991
2 34412 100.0000 348.0000 0000000   0.0000 168.0000 13.89609337    17
CTC2_L_00285030-04
1 34413U 23106NP  26037.47793981  .00000000  00000+0  00000-0 0  9992
2 34413 100.0000 348.0000 0000000   0.0000 258.0000 13.89609337    18
